NORAD_CAT_ID,OBJECT_NAME,OBJECT_TYPE,EPOCH,MEAN_MOTION,ECCENTRICITY,INCLINATION,RA_OF_ASC_NODE,ARG_OF_PERICENTER,MEAN_ANOMALY,BSTAR,MEAN_MOTION_DOT,MEAN_MOTION_DDOT,TLE_LINE0,TLE_LINE1,TLE_LINE2,SEMIMAJOR_AXIS,PERIOD,APOGEE,PERIGEE,DECAYED
52124.0,STARLINK-3684,PAYLOAD,2022-08-20 14:00:01,15.08824481,0.0001426999999999,53.2176,142.0453,70.8521,190.1434,0.0028506,0.00045352,0.0,0 STARLINK-3684,1 52124U 22029AN  22232.58334491  .00045352  00000-0  28506-2 0  9999,2 52124  53.2176 142.0453 0001427  70.8521 190.1434 15.08824481  1303,6917.928000000001,95.439,540.78,538.806,0.0
52124.0,STARLINK-3684,PAYLOAD,2022-08-20 22:00:00,15.08865312,0.0001571999999999,53.2176,140.55,69.9561,202.6317,-0.0035549,-0.0005646,0.0,0 STARLINK-3684,1 52124U 22029AN  22232.91667824 -.00056460  00000-0 -35549-2 0  9994,2 52124  53.2176 140.5500 0001572  69.9561 202.6317 15.08865312  1300,6917.803000000001,95.436,540.756,538.581,0.0
52124.0,STARLINK-3684,PAYLOAD,2022-08-21 14:00:01,15.08788573,0.000147,53.2177,137.5564,71.3783,224.3989,0.0032649999999999,0.00051984,0.0,0 STARLINK-3684,1 52124U 22029AN  22233.58334491  .00051984  00000-0  32650-2 0  9993,2 52124  53.2177 137.5564 0001470  71.3783 224.3989 15.08788573 25111,6918.038000000001,95.441,540.92,538.886,0.0
52124.0,STARLINK-3684,PAYLOAD,2022-08-21 22:00:00,15.08831557,0.0001579,53.2179,136.0612,68.8292,238.4979,-0.0011588,-0.00018679,0.0,0 STARLINK-3684,1 52124U 22029AN  22233.91667824 -.00018679  00000-0 -11588-2 0  9992,2 52124  53.2179 136.0612 0001579  68.8292 238.4979 15.08831557  1308,6917.906,95.438,540.864,538.679,0.0
52124.0,STARLINK-3684,PAYLOAD,2022-08-22 06:00:00,15.08822692,0.0001603,53.2179,134.5656,62.9503,255.9517,0.0012758,0.00020065,0.0,0 STARLINK-3684,1 52124U 22029AN  22234.25001157  .00020065  00000-0  12758-2 0  9991,2 52124  53.2179 134.5656 0001603  62.9503 255.9517 15.08822692 25215,6917.933000000001,95.439,540.9069999999998,538.689,0.0
52124.0,STARLINK-3684,PAYLOAD,2022-08-22 12:00:00,15.08824697,0.0001533,53.2184,133.4419,69.4573,168.1354,0.0012226,0.00019215,0.0,0 STARLINK-3684,1 52124U 22029AN  22234.50001157  .00019215  00000-0  12226-2 0  9994,2 52124  53.2184 133.4419 0001533  69.4573 168.1354 15.08824697  1302,6917.927,95.439,540.8530000000002,538.732,0.0
52124.0,STARLINK-3684,PAYLOAD,2022-08-22 22:00:00,15.08853571,0.0001643,53.2185,131.5725,68.1622,273.9093,-0.001273,-0.00020498,0.0,0 STARLINK-3684,1 52124U 22029AN  22234.91667824 -.00020498  00000-0 -12730-2 0  9995,2 52124  53.2185 131.5725 0001643  68.1622 273.9093 15.08853571  1303,6917.839,95.437,540.841,538.567,0.0
52124.0,STARLINK-3684,PAYLOAD,2022-08-23 06:00:00,15.08857097,0.0001608,53.2185,130.0767,62.503,291.1663,-0.0022581999999999,-0.00036065,0.0,0 STARLINK-3684,1 52124U 22029AN  22235.25001157 -.00036065  00000-0 -22582-2 0  9997,2 52124  53.2185 130.0767 0001608  62.5030 291.1663 15.08857097 25369,6917.828,95.436,540.806,538.581,0.0
52124.0,STARLINK-3684,PAYLOAD,2022-08-23 14:00:01,15.08800396,0.0001485,53.2189,128.5788,71.2483,294.0287,0.0033092,0.00052715,0.0,0 STARLINK-3684,1 52124U 22029AN  22235.58334491  .00052715  00000-0  33092-2 0  9999,2 52124  53.2189 128.5788 0001485  71.2483 294.0287 15.08800396  1302,6918.001,95.44,540.894,538.839,0.0
52124.0,STARLINK-3684,PAYLOAD,2022-08-23 22:00:01,15.08840961,0.0001595,53.2191,127.0838,66.8828,310.0639,-0.0014242,-0.00022883,0.0,0 STARLINK-3684,1 52124U 22029AN  22235.91668981 -.00022883  00000-0 -14242-2 0  9991,2 52124  53.2191 127.0838 0001595  66.8828 310.0639 15.08840961 25476,6917.877,95.437,540.846,538.639,0.0
52124.0,STARLINK-3684,PAYLOAD,2022-08-24 14:00:01,15.08814404,0.0001492,53.2192,124.0901,72.7217,327.3446,0.003172,0.00050521,0.0,0 STARLINK-3684,1 52124U 22029AN  22236.58334491  .00050521  00000-0  31720-2 0  9999,2 52124  53.2192 124.0901 0001492  72.7217 327.3446 15.08814404  1305,6917.959,95.439,540.856,538.7909999999998,0.0
52124.0,STARLINK-3684,PAYLOAD,2022-08-24 16:00:00,15.08832948,0.0001551,53.2195,123.716,74.2084,58.74800000000001,0.0017055999999999,0.00026956,0.0,0 STARLINK-3684,1 52124U 22029AN  22236.66667824  .00026956  00000-0  17056-2 0  9998,2 52124  53.2195 123.7160 0001551  74.2084  58.7480 15.08832948 25588,6917.901999999999,95.438,540.84,538.694,0.0
52124.0,STARLINK-3684,PAYLOAD,2022-08-24 22:00:00,15.08854924,0.0001604,53.2193,122.5954,67.9302,343.7221,-0.0014097,-0.00022662,0.0,0 STARLINK-3684,1 52124U 22029AN  22236.91667824 -.00022662  00000-0 -14097-2 0  9990,2 52124  53.2193 122.5954 0001604  67.9302 343.7221 15.08854924  1307,6917.835,95.437,540.809,538.59,0.0
52124.0,STARLINK-3684,PAYLOAD,2022-08-25 06:00:02,15.08867083,0.0001553,53.219,121.0991,63.8879,359.4248,-0.0031579,-0.00050233,0.0,0 STARLINK-3684,1 52124U 22029AN  22237.25002315 -.00050233  00000-0 -31579-2 0  9995,2 52124  53.2190 121.0991 0001553  63.8879 359.4248 15.08867083 25675,6917.7980000000025,95.436,540.737,538.5880000000002,0.0
52124.0,STARLINK-3684,PAYLOAD,2022-08-25 14:00:01,15.08804165,0.0001385,53.2192,119.6014,73.75,1.1154,0.0029468,0.00046876,0.0,0 STARLINK-3684,1 52124U 22029AN  22237.58334491  .00046876  00000-0  29468-2 0  9994,2 52124  53.2192 119.6014 0001385  73.7500   1.1154 15.08804165  1303,6917.99,95.44,540.813,538.8969999999998,0.0
52124.0,STARLINK-3684,PAYLOAD,2022-08-25 22:00:00,15.08840024,0.0001496,53.2191,118.1068,68.0263,18.4116,-0.0013181,-0.00021204,0.0,0 STARLINK-3684,1 52124U 22029AN  22237.91667824 -.00021204  00000-0 -13181-2 0  9995,2 52124  53.2191 118.1068 0001496  68.0263  18.4116 15.08840024  1304,6917.88,95.438,540.78,538.71,0.0
52124.0,STARLINK-3684,PAYLOAD,2022-08-26 14:00:01,15.08819334,0.0001402,53.2187,115.1127,76.3484,33.3296,0.0025815,0.00041013,0.0,0 STARLINK-3684,1 52124U 22029AN  22238.58335648  .00041013  00000-0  25815-2 0  9990,2 52124  53.2187 115.1127 0001402  76.3484  33.3296 15.08819334  1301,6917.944,95.439,540.778,538.839,0.0
52124.0,STARLINK-3684,PAYLOAD,2022-08-26 22:00:00,15.08848899,0.00015,53.2185,113.6181,70.0538,51.1513,-0.0010494,-0.00016954,0.0,0 STARLINK-3684,1 52124U 22029AN  22238.91667824 -.00016954  00000-0 -10494-2 0  9996,2 52124  53.2185 113.6181 0001500  70.0538  51.1513 15.08848899  1300,6917.853,95.437,540.756,538.681,0.0
52124.0,STARLINK-3684,PAYLOAD,2022-08-27 14:00:01,15.08846655,0.0001498,53.2181,110.6238,78.8714,65.5377,-0.00065072,-0.00010631,0.0,0 STARLINK-3684,1 52124U 22029AN  22239.58334491 -.00010631  00000-0 -65072-3 0  9990,2 52124  53.2181 110.6238 0001498  78.8714  65.5377 15.08846655  1309,6917.86,95.437,540.761,538.689,0.0
52124.0,STARLINK-3684,PAYLOAD,2022-08-27 22:00:00,15.08831129,0.000164,53.2178,109.1292,72.5408,83.4699,-0.00063325,-0.0001035,0.0,0 STARLINK-3684,1 52124U 22029AN  22239.91667824 -.00010350  00000-0 -63325-3 0  9993,2 52124  53.2178 109.1292 0001640  72.5408  83.4699 15.08831129  1304,6917.908,95.438,540.9069999999998,538.638,0.0
52124.0,STARLINK-3684,PAYLOAD,2022-08-28 14:00:01,15.08829171,0.0001584,53.2175,106.1347,79.8396,99.346,0.0021392,0.00033911,0.0,0 STARLINK-3684,1 52124U 22029AN  22240.58334491  .00033911  00000-0  21392-2 0  9992,2 52124  53.2175 106.1347 0001584  79.8396  99.3460 15.08829171  1308,6917.913000000001,95.438,540.874,538.683,0.0
52124.0,STARLINK-3684,PAYLOAD,2022-08-28 22:00:00,15.08854844,0.0001643,53.2174,104.64,72.0826,118.6976,-0.0022734,-0.00036302,0.0,0 STARLINK-3684,1 52124U 22029AN  22240.91667824 -.00036302  00000-0 -22734-2 0  9998,2 52124  53.2174 104.6400 0001643  72.0826 118.6976 15.08854844  1301,6917.835,95.437,540.837,538.563,0.0
52124.0,STARLINK-3684,PAYLOAD,2022-08-29 06:00:02,15.08843159,0.0001514,53.2173,103.1429,70.5971,131.8388,-0.0022837,-0.00036453,0.0,0 STARLINK-3684,1 52124U 22029AN  22241.25002315 -.00036453  00000-0 -22837-2 0  9995,2 52124  53.2173 103.1429 0001514  70.5971 131.8388 15.08843159 26270,6917.871,95.437,540.783,538.688,0.0
52124.0,STARLINK-3684,PAYLOAD,2022-08-29 14:00:01,15.08818141,0.0001526,53.2175,101.6453,78.6356,135.3208,0.0018625,0.0002946,0.0,0 STARLINK-3684,1 52124U 22029AN  22241.58334491  .00029460  00000-0  18625-2 0  9992,2 52124  53.2175 101.6453 0001526  78.6356 135.3208 15.08818141  1301,6917.946999999999,95.439,540.868,538.757,0.0
52124.0,STARLINK-3684,PAYLOAD,2022-08-29 22:00:00,15.08830572,0.0001626,53.2175,100.1507,70.0986,155.4432,0.00030983,4.645e-05,0.0,0 STARLINK-3684,1 52124U 22029AN  22241.91667824  .00004645  00000-0  30983-3 0  9998,2 52124  53.2175 100.1507 0001626  70.0986 155.4432 15.08830572  1305,6917.909000000002,95.438,540.899,538.649,0.0
52124.0,STARLINK-3684,PAYLOAD,2022-08-30 14:00:01,15.08844236,0.0001547,53.2179,97.156,78.2135,170.50400000000005,0.00037921,5.753e-05,0.0,0 STARLINK-3684,1 52124U 22029AN  22242.58334491  .00005753  00000-0  37921-3 0  9993,2 52124  53.2179  97.1560 0001547  78.2135 170.5040 15.08844236  1306,6917.8669999999975,95.437,540.803,538.6619999999998,0.0
52124.0,STARLINK-3684,PAYLOAD,2022-08-30 22:00:00,15.08825603,0.0001595999999999,53.218,95.6613,68.5585,191.7682,-0.00037678,-6.277e-05,0.0,0 STARLINK-3684,1 52124U 22029AN  22242.91667824 -.00006277  00000-0 -37678-3 0  9992,2 52124  53.2180  95.6613 0001596  68.5585 191.7682 15.08825603  1309,6917.924,95.438,540.893,538.685,0.0
52124.0,STARLINK-3684,PAYLOAD,2022-08-31 14:00:01,15.08829945,0.0001486999999999,53.2185,92.6668,77.5064,205.9794,0.0015047,0.00023734,0.0,0 STARLINK-3684,1 52124U 22029AN  22243.58334491  .00023734  00000-0  15047-2 0  9997,2 52124  53.2185  92.6668 0001487  77.5064 205.9794 15.08829945  1307,6917.911,95.438,540.805,538.747,0.0
52124.0,STARLINK-3684,PAYLOAD,2022-08-31 22:00:00,15.08830984,0.0001594,53.2186,91.1722,68.4415,226.6397,0.00079838,0.00012438,0.0,0 STARLINK-3684,1 52124U 22029AN  22243.91667824  .00012438  00000-0  79838-3 0  9991,2 52124  53.2186  91.1722 0001594  68.4415 226.6397 15.08830984  1305,6917.908,95.438,540.876,538.67,0.0
